[{"OBJECT_NAME":"SL-16 R/B","OBJECT_ID":"1993-059B","EPOCH":"2026-04-26T19:47:52.845216","MEAN_MOTION":14.17239172,"ECCENTRICITY":0.0015803,"INCLINATION":70.9894,"RA_OF_ASC_NODE":269.6161,"ARG_OF_PERICENTER":142.9498,"MEAN_ANOMALY":217.272,"EPHEMERIS_TYPE":0,"CLASSIFICATION_TYPE":"U","NORAD_CAT_ID":22803,"ELEMENT_SET_NO":999,"REV_AT_EPOCH":68635,"BSTAR":0.00012555,"MEAN_MOTION_DOT":2.06e-6,"MEAN_MOTION_DDOT":0},{"OBJECT_NAME":"ARIANE 40 R/B","OBJECT_ID":"1993-061H","EPOCH":"2026-04-26T19:28:26.059008","MEAN_MOTION":14.32884877,"ECCENTRICITY":0.0011644,"INCLINATION":98.4843,"RA_OF_ASC_NODE":184.7297,"ARG_OF_PERICENTER":137.6708,"MEAN_ANOMALY":222.5376,"EPHEMERIS_TYPE":0,"CLASSIFICATION_TYPE":"U","NORAD_CAT_ID":22830,"ELEMENT_SET_NO":999,"REV_AT_EPOCH":70099,"BSTAR":8.1012e-5,"MEAN_MOTION_DOT":1.78e-6,"MEAN_MOTION_DDOT":0},{"OBJECT_NAME":"COSMOS 2278","OBJECT_ID":"1994-023A","EPOCH":"2026-04-26T19:56:55.809600","MEAN_MOTION":14.14387867,"ECCENTRICITY":0.0010551,"INCLINATION":71.0537,"RA_OF_ASC_NODE":74.3732,"ARG_OF_PERICENTER":306.3936,"MEAN_ANOMALY":53.6213,"EPHEMERIS_TYPE":0,"CLASSIFICATION_TYPE":"U","NORAD_CAT_ID":23087,"ELEMENT_SET_NO":999,"REV_AT_EPOCH":65161,"BSTAR":0.0001097,"MEAN_MOTION_DOT":1.63e-6,"MEAN_MOTION_DDOT":0},{"OBJECT_NAME":"SL-16 R/B","OBJECT_ID":"1994-023B","EPOCH":"2026-04-26T20:32:34.937088","MEAN_MOTION":14.15015311,"ECCENTRICITY":0.0005097,"INCLINATION":70.9999,"RA_OF_ASC_NODE":329.7349,"ARG_OF_PERICENTER":240.8121,"MEAN_ANOMALY":119.2492,"EPHEMERIS_TYPE":0,"CLASSIFICATION_TYPE":"U","NORAD_CAT_ID":23088,"ELEMENT_SET_NO":999,"REV_AT_EPOCH":65290,"BSTAR":3.4094e-5,"MEAN_MOTION_DOT":1.8e-7,"MEAN_MOTION_DDOT":0},{"OBJECT_NAME":"SL-16 R/B","OBJECT_ID":"1994-074B","EPOCH":"2026-04-26T20:02:29.007744","MEAN_MOTION":14.79457227,"ECCENTRICITY":0.0007985,"INCLINATION":97.7035,"RA_OF_ASC_NODE":145.6866,"ARG_OF_PERICENTER":69.7847,"MEAN_ANOMALY":103.0138,"EPHEMERIS_TYPE":0,"CLASSIFICATION_TYPE":"U","NORAD_CAT_ID":23343,"ELEMENT_SET_NO":999,"REV_AT_EPOCH":69436,"BSTAR":6.2741e-5,"MEAN_MOTION_DOT":4.19e-6,"MEAN_MOTION_DDOT":0},{"OBJECT_NAME":"SL-16 R/B","OBJECT_ID":"1994-077B","EPOCH":"2026-04-26T19:39:03.189024","MEAN_MOTION":14.15572639,"ECCENTRICITY":3.32e-5,"INCLINATION":70.9831,"RA_OF_ASC_NODE":251.2302,"ARG_OF_PERICENTER":102.0816,"MEAN_ANOMALY":258.0344,"EPHEMERIS_TYPE":0,"CLASSIFICATION_TYPE":"U","NORAD_CAT_ID":23405,"ELEMENT_SET_NO":999,"REV_AT_EPOCH":62304,"BSTAR":3.4183e-5,"MEAN_MOTION_DOT":1.9e-7,"MEAN_MOTION_DDOT":0},{"OBJECT_NAME":"ARIANE 40+ R/B","OBJECT_ID":"1995-021B","EPOCH":"2026-04-26T18:39:59.437728","MEAN_MOTION":14.39804185,"ECCENTRICITY":0.0006657,"INCLINATION":98.4429,"RA_OF_ASC_NODE":187.5905,"ARG_OF_PERICENTER":9.0594,"MEAN_ANOMALY":101.5666,"EPHEMERIS_TYPE":0,"CLASSIFICATION_TYPE":"U","NORAD_CAT_ID":23561,"ELEMENT_SET_NO":999,"REV_AT_EPOCH":62616,"BSTAR":0.00010233,"MEAN_MOTION_DOT":2.78e-6,"MEAN_MOTION_DDOT":0},{"OBJECT_NAME":"SL-16 R/B","OBJECT_ID":"1995-058B","EPOCH":"2026-04-26T14:47:11.255136","MEAN_MOTION":14.15504817,"ECCENTRICITY":0.0010979,"INCLINATION":71.0206,"RA_OF_ASC_NODE":79.6322,"ARG_OF_PERICENTER":37.4311,"MEAN_ANOMALY":322.7575,"EPHEMERIS_TYPE":0,"CLASSIFICATION_TYPE":"U","NORAD_CAT_ID":23705,"ELEMENT_SET_NO":999,"REV_AT_EPOCH":57463,"BSTAR":-6.7055e-5,"MEAN_MOTION_DOT":-1.79e-6,"MEAN_MOTION_DDOT":0},{"OBJECT_NAME":"SL-16 R/B","OBJECT_ID":"1996-051B","EPOCH":"2026-04-26T14:47:00.860352","MEAN_MOTION":14.12428066,"ECCENTRICITY":0.00125,"INCLINATION":70.7604,"RA_OF_ASC_NODE":73.7956,"ARG_OF_PERICENTER":64.8357,"MEAN_ANOMALY":295.4058,"EPHEMERIS_TYPE":0,"CLASSIFICATION_TYPE":"U","NORAD_CAT_ID":24298,"ELEMENT_SET_NO":999,"REV_AT_EPOCH":52841,"BSTAR":7.9295e-5,"MEAN_MOTION_DOT":9.7e-7,"MEAN_MOTION_DDOT":0},{"OBJECT_NAME":"ORBVIEW 2 (SEASTAR)","OBJECT_ID":"1997-037A","EPOCH":"2026-04-26T20:38:45.485952","MEAN_MOTION":14.35525804,"ECCENTRICITY":0.0001078,"INCLINATION":98.8644,"RA_OF_ASC_NODE":282.4685,"ARG_OF_PERICENTER":282.6632,"MEAN_ANOMALY":77.4431,"EPHEMERIS_TYPE":0,"CLASSIFICATION_TYPE":"U","NORAD_CAT_ID":24883,"ELEMENT_SET_NO":999,"REV_AT_EPOCH":51538,"BSTAR":0.0001025,"MEAN_MOTION_DOT":2.48e-6,"MEAN_MOTION_DDOT":0},{"OBJECT_NAME":"SL-16 R/B","OBJECT_ID":"1998-043G","EPOCH":"2026-04-26T20:43:24.684960","MEAN_MOTION":14.26060068,"ECCENTRICITY":0.0008941,"INCLINATION":98.8327,"RA_OF_ASC_NODE":70.5927,"ARG_OF_PERICENTER":231.219,"MEAN_ANOMALY":128.8192,"EPHEMERIS_TYPE":0,"CLASSIFICATION_TYPE":"U","NORAD_CAT_ID":25400,"ELEMENT_SET_NO":999,"REV_AT_EPOCH":44585,"BSTAR":4.2083e-5,"MEAN_MOTION_DOT":5.5e-7,"MEAN_MOTION_DDOT":0},{"OBJECT_NAME":"SL-16 R/B","OBJECT_ID":"1998-045B","EPOCH":"2026-04-26T14:29:01.980096","MEAN_MOTION":14.16196639,"ECCENTRICITY":0.0009289,"INCLINATION":71.0099,"RA_OF_ASC_NODE":80.8101,"ARG_OF_PERICENTER":302.395,"MEAN_ANOMALY":57.6273,"EPHEMERIS_TYPE":0,"CLASSIFICATION_TYPE":"U","NORAD_CAT_ID":25407,"ELEMENT_SET_NO":999,"REV_AT_EPOCH":43388,"BSTAR":-6.653e-5,"MEAN_MOTION_DOT":-1.8e-6,"MEAN_MOTION_DDOT":0},{"OBJECT_NAME":"ISS (ZARYA)","OBJECT_ID":"1998-067A","EPOCH":"2026-04-26T15:38:18.521664","MEAN_MOTION":15.48972814,"ECCENTRICITY":0.0007009,"INCLINATION":51.632,"RA_OF_ASC_NODE":195.1803,"ARG_OF_PERICENTER":353.7259,"MEAN_ANOMALY":6.364,"EPHEMERIS_TYPE":0,"CLASSIFICATION_TYPE":"U","NORAD_CAT_ID":25544,"ELEMENT_SET_NO":999,"REV_AT_EPOCH":56376,"BSTAR":0.00017009,"MEAN_MOTION_DOT":8.927e-5,"MEAN_MOTION_DDOT":0},{"OBJECT_NAME":"CZ-4B R/B","OBJECT_ID":"1999-025C","EPOCH":"2026-04-26T20:55:28.011072","MEAN_MOTION":14.18274219,"ECCENTRICITY":0.0036681,"INCLINATION":98.6533,"RA_OF_ASC_NODE":159.99,"ARG_OF_PERICENTER":204.6816,"MEAN_ANOMALY":328.712,"EPHEMERIS_TYPE":0,"CLASSIFICATION_TYPE":"U","NORAD_CAT_ID":25732,"ELEMENT_SET_NO":999,"REV_AT_EPOCH":39499,"BSTAR":3.6158e-5,"MEAN_MOTION_DOT":3.2e-7,"MEAN_MOTION_DDOT":0},{"OBJECT_NAME":"OKEAN-O","OBJECT_ID":"1999-039A","EPOCH":"2026-04-26T17:01:54.211872","MEAN_MOTION":14.80404478,"ECCENTRICITY":0.0001538,"INCLINATION":97.9355,"RA_OF_ASC_NODE":176.0899,"ARG_OF_PERICENTER":114.0779,"MEAN_ANOMALY":246.0594,"EPHEMERIS_TYPE":0,"CLASSIFICATION_TYPE":"U","NORAD_CAT_ID":25860,"ELEMENT_SET_NO":999,"REV_AT_EPOCH":44149,"BSTAR":9.7253e-5,"MEAN_MOTION_DOT":6.91e-6,"MEAN_MOTION_DDOT":0},{"OBJECT_NAME":"SL-16 R/B","OBJECT_ID":"1999-039B","EPOCH":"2026-04-26T17:05:19.000608","MEAN_MOTION":14.81791711,"ECCENTRICITY":0.001617,"INCLINATION":97.9879,"RA_OF_ASC_NODE":175.7132,"ARG_OF_PERICENTER":101.0669,"MEAN_ANOMALY":259.2363,"EPHEMERIS_TYPE":0,"CLASSIFICATION_TYPE":"U","NORAD_CAT_ID":25861,"ELEMENT_SET_NO":999,"REV_AT_EPOCH":44397,"BSTAR":7.9431e-5,"MEAN_MOTION_DOT":5.74e-6,"MEAN_MOTION_DDOT":0},{"OBJECT_NAME":"DELTA 2 R/B","OBJECT_ID":"1999-041E","EPOCH":"2026-04-26T08:45:36.800928","MEAN_MOTION":14.11930413,"ECCENTRICITY":0.05024604,"INCLINATION":51.7598,"RA_OF_ASC_NODE":110.8175,"ARG_OF_PERICENTER":129.0171,"MEAN_ANOMALY":235.662,"EPHEMERIS_TYPE":0,"CLASSIFICATION_TYPE":"U","NORAD_CAT_ID":25876,"ELEMENT_SET_NO":999,"REV_AT_EPOCH":36976,"BSTAR":0.0001527547,"MEAN_MOTION_DOT":7.05e-6,"MEAN_MOTION_DDOT":0}]
