SL-16 R/B               
1 22803U 93059B   26116.82491719  .00000206  00000+0  12555-3 0  9996
2 22803  70.9894 269.6161 0015803 142.9498 217.2720 14.17239172686355
ARIANE 40 R/B           
1 22830U 93061H   26116.81141272  .00000178  00000+0  81012-4 0  9997
2 22830  98.4843 184.7297 0011644 137.6708 222.5376 14.32884877700993
COSMOS 2278             
1 23087U 94023A   26116.83120150  .00000163  00000+0  10970-3 0  9993
2 23087  71.0537  74.3732 0010551 306.3936  53.6213 14.14387867651611
SL-16 R/B               
1 23088U 94023B   26116.85595992  .00000018  00000+0  34094-4 0  9999
2 23088  70.9999 329.7349 0005097 240.8121 119.2492 14.15015311652904
SL-16 R/B               
1 23343U 94074B   26116.83505796  .00000419  00000+0  62741-4 0  9995
2 23343  97.7035 145.6866 0007985  69.7847 103.0138 14.79457227694366
SL-16 R/B               
1 23405U 94077B   26116.81878691  .00000019  00000+0  34183-4 0  9997
2 23405  70.9831 251.2302 0000332 102.0816 258.0344 14.15572639623049
ARIANE 40+ R/B          
1 23561U 95021B   26116.77777127  .00000278  00000+0  10233-3 0  9993
2 23561  98.4429 187.5905 0006657   9.0594 101.5666 14.39804185626160
SL-16 R/B               
1 23705U 95058B   26116.61610249 -.00000179  00000+0 -67055-4 0  9994
2 23705  71.0206  79.6322 0010979  37.4311 322.7575 14.15504817574631
SL-16 R/B               
1 24298U 96051B   26116.61598218  .00000097  00000+0  79295-4 0  9993
2 24298  70.7604  73.7956 0012500  64.8357 295.4058 14.12428066528416
ORBVIEW 2 (SEASTAR)     
1 24883U 97037A   26116.86024868  .00000248  00000+0  10250-3 0  9993
2 24883  98.8644 282.4685 0001078 282.6632  77.4431 14.35525804515381
SL-16 R/B               
1 25400U 98043G   26116.86348015  .00000055  00000+0  42083-4 0  9996
2 25400  98.8327  70.5927 0008941 231.2190 128.8192 14.26060068445850
SL-16 R/B               
1 25407U 98045B   26116.60349514 -.00000180  00000+0 -66530-4 0  9996
2 25407  71.0099  80.8101 0009289 302.3950  57.6273 14.16196639433886
ISS (ZARYA)             
1 25544U 98067A   26116.65160326  .00008927  00000+0  17009-3 0  9990
2 25544  51.6320 195.1803 0007009 353.7259   6.3640 15.48972814563761
CZ-4B R/B               
1 25732U 99025C   26116.87185198  .00000032  00000+0  36158-4 0  9998
2 25732  98.6533 159.9900 0036681 204.6816 328.7120 14.18274219394995
OKEAN-O                 
1 25860U 99039A   26116.70965523  .00000691  00000+0  97253-4 0  9999
2 25860  97.9355 176.0899 0001538 114.0779 246.0594 14.80404478441499
SL-16 R/B               
1 25861U 99039B   26116.71202547  .00000574  00000+0  79431-4 0  9999
2 25861  97.9879 175.7132 0016170 101.0669 259.2363 14.81791711443974
DELTA 2 R/B             
1 25876U 99041E   26116.36500927  .00000705  00000+0  15275-3 0  9993
2 25876  51.7598 110.8175 0502460 129.0171 235.6620 14.11930413369768
